[{"OBJECT_NAME":"STARLINK-3742","OBJECT_ID":"2022-041AU","EPOCH":"2026-03-09T09:30:46.662624","MEAN_MOTION":15.08837913,"ECCENTRICITY":0.00014576,"INCLINATION":53.2181,"RA_OF_ASC_NODE":100.4375,"ARG_OF_PERICENTER":95.149,"MEAN_ANOMALY":264.9668,"EPHEMERIS_TYPE":0,"CLASSIFICATION_TYPE":"U","NORAD_CAT_ID":52303,"ELEMENT_SET_NO":999,"REV_AT_EPOCH":21568,"BSTAR":1.7588881e-5,"MEAN_MOTION_DOT":-8.0e-8,"MEAN_MOTION_DDOT":0},{"OBJECT_NAME":"FENGYUN 1C DEB","OBJECT_ID":"1999-025CDM","EPOCH":"2026-03-09T06:24:55.905408","MEAN_MOTION":15.0430028,"ECCENTRICITY":0.00202824,"INCLINATION":99.0326,"RA_OF_ASC_NODE":346.4521,"ARG_OF_PERICENTER":26.5298,"MEAN_ANOMALY":133.8427,"EPHEMERIS_TYPE":0,"CLASSIFICATION_TYPE":"U","NORAD_CAT_ID":31714,"ELEMENT_SET_NO":999,"REV_AT_EPOCH":97342,"BSTAR":0.0098433176,"MEAN_MOTION_DOT":0.00140271,"MEAN_MOTION_DDOT":0}]
